[{"OBJECT_NAME":"MDQUBESAT-2","OBJECT_ID":"2023-185P","EPOCH":"2026-03-09T22:55:20.181216","MEAN_MOTION":15.58445161,"ECCENTRICITY":0.00075381,"INCLINATION":97.5425,"RA_OF_ASC_NODE":156.0719,"ARG_OF_PERICENTER":237.8799,"MEAN_ANOMALY":122.1726,"EPHEMERIS_TYPE":0,"CLASSIFICATION_TYPE":"U","NORAD_CAT_ID":58665,"ELEMENT_SET_NO":999,"REV_AT_EPOCH":12232,"BSTAR":0.0018049813,"MEAN_MOTION_DOT":0.00139688,"MEAN_MOTION_DDOT":0},{"OBJECT_NAME":"STARLINK-36601","OBJECT_ID":"2026-020B","EPOCH":"2026-03-09T22:00:01.999584","MEAN_MOTION":15.68236103,"ECCENTRICITY":0.00012387,"INCLINATION":42.9992,"RA_OF_ASC_NODE":140.3557,"ARG_OF_PERICENTER":284.2065,"MEAN_ANOMALY":191.4822,"EPHEMERIS_TYPE":0,"CLASSIFICATION_TYPE":"U","NORAD_CAT_ID":67618,"ELEMENT_SET_NO":999,"REV_AT_EPOCH":604,"BSTAR":-0.019358598,"MEAN_MOTION_DOT":-0.01967979,"MEAN_MOTION_DDOT":0}]
